LANDSAT 9               
1 49260U 21088A   24112.79332495  .00001678  00000+0  38210-3 0  9990
2 49260  98.1898 183.3591 0001170  82.6405 277.4926 14.57152341136482
